ONEWEB-0098             
1 45442U 20020U   25266.91929227  .00000552  00000+0  15213-2 0  9990
2 45442  87.8792  74.1002 0001588  91.2404 268.8906 13.11417128267742
ONEWEB-0055             
1 45443U 20020V   25266.90232104  .00000160  00000+0  41593-3 0  9997
2 45443  87.8795  74.1044 0001589  92.8331 267.2978 13.11420633267713
ONEWEB-0093             
1 45444U 20020W   25266.72528199 -.00000523  00000+0 -15125-2 0  9996
2 45444  87.8794  74.1250 0001662  75.8621 284.2692 13.11416372267758
ONEWEB-0029             
1 45445U 20020X   25266.97013884 -.00000361  00000+0 -10546-2 0  9996
2 45445  87.8795  74.0890 0001533  87.2453 272.8850 13.11419411267763
ONEWEB-0068             
1 45446U 20020Y   25266.72500190 -.00000533  00000+0 -15409-2 0  9995
2 45446  87.8794  74.1265 0001546  85.6405 274.4900 13.11415006267673
ONEWEB-0046             
1 45447U 20020Z   25266.86926154 -.00000264  00000+0 -78170-3 0  9999
2 45447  87.8790  74.1071 0001779  83.3739 276.7592 13.11414688267709
ONEWEB-0063             
1 45448U 20020AA  25266.89807835 -.00000187  00000+0 -56430-3 0  9996
2 45448  87.8794  74.0996 0001861  89.1291 271.0050 13.11418489267797
ONEWEB-0019             
1 45449U 20020AB  25266.87180807 -.00000394  00000+0 -11465-2 0  9996
2 45449  87.8786  74.1205 0001562  92.4815 267.6492 13.11415774267638
