<?xml version="1.0" encoding="UTF-8"?>
<ndm xmlns:xsi="http://www.w3.org/2001/XMLSchema-instance" xsi:noNamespaceSchemaLocation="https://sanaregistry.org/r/ndmxml_unqualified/ndmxml-2.0.0-master-2.0.xsd">
<omm id="CCSDS_OMM_VERS" version="2.0">
<header><CREATION_DATE/><ORIGINATOR/></header><body><segment><metadata><OBJECT_NAME>ONEWEB-0098</OBJECT_NAME><OBJECT_ID>2020-020U</OBJECT_ID><CENTER_NAME>EARTH</CENTER_NAME><REF_FRAME>TEME</REF_FRAME><TIME_SYSTEM>UTC</TIME_SYSTEM><MEAN_ELEMENT_THEORY>SGP4</MEAN_ELEMENT_THEORY></metadata><data><meanElements><EPOCH>2025-09-23T22:03:46.852128</EPOCH><MEAN_MOTION>13.11417128</MEAN_MOTION><ECCENTRICITY>.00015889</ECCENTRICITY><INCLINATION>87.8792</INCLINATION><RA_OF_ASC_NODE>74.1002</RA_OF_ASC_NODE><ARG_OF_PERICENTER>91.2404</ARG_OF_PERICENTER><MEAN_ANOMALY>268.8906</MEAN_ANOMALY></meanElements><tleParameters><EPHEMERIS_TYPE>0</EPHEMERIS_TYPE><CLASSIFICATION_TYPE>U</CLASSIFICATION_TYPE><NORAD_CAT_ID>45442</NORAD_CAT_ID><ELEMENT_SET_NO>999</ELEMENT_SET_NO><REV_AT_EPOCH>26774</REV_AT_EPOCH><BSTAR>.15213216E-2</BSTAR><MEAN_MOTION_DOT>.552E-5</MEAN_MOTION_DOT><MEAN_MOTION_DDOT>0</MEAN_MOTION_DDOT></tleParameters></data></segment></body></omm>
<omm id="CCSDS_OMM_VERS" version="2.0">
<header><CREATION_DATE/><ORIGINATOR/></header><body><segment><metadata><OBJECT_NAME>ONEWEB-0055</OBJECT_NAME><OBJECT_ID>2020-020V</OBJECT_ID><CENTER_NAME>EARTH</CENTER_NAME><REF_FRAME>TEME</REF_FRAME><TIME_SYSTEM>UTC</TIME_SYSTEM><MEAN_ELEMENT_THEORY>SGP4</MEAN_ELEMENT_THEORY></metadata><data><meanElements><EPOCH>2025-09-23T21:39:20.537856</EPOCH><MEAN_MOTION>13.11420633</MEAN_MOTION><ECCENTRICITY>.0001589</ECCENTRICITY><INCLINATION>87.8795</INCLINATION><RA_OF_ASC_NODE>74.1044</RA_OF_ASC_NODE><ARG_OF_PERICENTER>92.8331</ARG_OF_PERICENTER><MEAN_ANOMALY>267.2978</MEAN_ANOMALY></meanElements><tleParameters><EPHEMERIS_TYPE>0</EPHEMERIS_TYPE><CLASSIFICATION_TYPE>U</CLASSIFICATION_TYPE><NORAD_CAT_ID>45443</NORAD_CAT_ID><ELEMENT_SET_NO>999</ELEMENT_SET_NO><REV_AT_EPOCH>26771</REV_AT_EPOCH><BSTAR>.41593078E-3</BSTAR><MEAN_MOTION_DOT>.16E-5</MEAN_MOTION_DOT><MEAN_MOTION_DDOT>0</MEAN_MOTION_DDOT></tleParameters></data></segment></body></omm>
<omm id="CCSDS_OMM_VERS" version="2.0">
<header><CREATION_DATE/><ORIGINATOR/></header><body><segment><metadata><OBJECT_NAME>ONEWEB-0093</OBJECT_NAME><OBJECT_ID>2020-020W</OBJECT_ID><CENTER_NAME>EARTH</CENTER_NAME><REF_FRAME>TEME</REF_FRAME><TIME_SYSTEM>UTC</TIME_SYSTEM><MEAN_ELEMENT_THEORY>SGP4</MEAN_ELEMENT_THEORY></metadata><data><meanElements><EPOCH>2025-09-23T17:24:24.363936</EPOCH><MEAN_MOTION>13.11416372</MEAN_MOTION><ECCENTRICITY>.0001662</ECCENTRICITY><INCLINATION>87.8794</INCLINATION><RA_OF_ASC_NODE>74.1250</RA_OF_ASC_NODE><ARG_OF_PERICENTER>75.8621</ARG_OF_PERICENTER><MEAN_ANOMALY>284.2692</MEAN_ANOMALY></meanElements><tleParameters><EPHEMERIS_TYPE>0</EPHEMERIS_TYPE><CLASSIFICATION_TYPE>U</CLASSIFICATION_TYPE><NORAD_CAT_ID>45444</NORAD_CAT_ID><ELEMENT_SET_NO>999</ELEMENT_SET_NO><REV_AT_EPOCH>26775</REV_AT_EPOCH><BSTAR>-.15124935E-2</BSTAR><MEAN_MOTION_DOT>-.523E-5</MEAN_MOTION_DOT><MEAN_MOTION_DDOT>0</MEAN_MOTION_DDOT></tleParameters></data></segment></body></omm>
<omm id="CCSDS_OMM_VERS" version="2.0">
<header><CREATION_DATE/><ORIGINATOR/></header><body><segment><metadata><OBJECT_NAME>ONEWEB-0029</OBJECT_NAME><OBJECT_ID>2020-020X</OBJECT_ID><CENTER_NAME>EARTH</CENTER_NAME><REF_FRAME>TEME</REF_FRAME><TIME_SYSTEM>UTC</TIME_SYSTEM><MEAN_ELEMENT_THEORY>SGP4</MEAN_ELEMENT_THEORY></metadata><data><meanElements><EPOCH>2025-09-23T23:16:59.995776</EPOCH><MEAN_MOTION>13.11419411</MEAN_MOTION><ECCENTRICITY>.00015334</ECCENTRICITY><INCLINATION>87.8795</INCLINATION><RA_OF_ASC_NODE>74.0890</RA_OF_ASC_NODE><ARG_OF_PERICENTER>87.2453</ARG_OF_PERICENTER><MEAN_ANOMALY>272.8850</MEAN_ANOMALY></meanElements><tleParameters><EPHEMERIS_TYPE>0</EPHEMERIS_TYPE><CLASSIFICATION_TYPE>U</CLASSIFICATION_TYPE><NORAD_CAT_ID>45445</NORAD_CAT_ID><ELEMENT_SET_NO>999</ELEMENT_SET_NO><REV_AT_EPOCH>26776</REV_AT_EPOCH><BSTAR>-.10545715E-2</BSTAR><MEAN_MOTION_DOT>-.361E-5</MEAN_MOTION_DOT><MEAN_MOTION_DDOT>0</MEAN_MOTION_DDOT></tleParameters></data></segment></body></omm>
<omm id="CCSDS_OMM_VERS" version="2.0">
<header><CREATION_DATE/><ORIGINATOR/></header><body><segment><metadata><OBJECT_NAME>ONEWEB-0068</OBJECT_NAME><OBJECT_ID>2020-020Y</OBJECT_ID><CENTER_NAME>EARTH</CENTER_NAME><REF_FRAME>TEME</REF_FRAME><TIME_SYSTEM>UTC</TIME_SYSTEM><MEAN_ELEMENT_THEORY>SGP4</MEAN_ELEMENT_THEORY></metadata><data><meanElements><EPOCH>2025-09-23T17:24:00.164160</EPOCH><MEAN_MOTION>13.11415006</MEAN_MOTION><ECCENTRICITY>.00015467</ECCENTRICITY><INCLINATION>87.8794</INCLINATION><RA_OF_ASC_NODE>74.1265</RA_OF_ASC_NODE><ARG_OF_PERICENTER>85.6405</ARG_OF_PERICENTER><MEAN_ANOMALY>274.4900</MEAN_ANOMALY></meanElements><tleParameters><EPHEMERIS_TYPE>0</EPHEMERIS_TYPE><CLASSIFICATION_TYPE>U</CLASSIFICATION_TYPE><NORAD_CAT_ID>45446</NORAD_CAT_ID><ELEMENT_SET_NO>999</ELEMENT_SET_NO><REV_AT_EPOCH>26767</REV_AT_EPOCH><BSTAR>-.15408693E-2</BSTAR><MEAN_MOTION_DOT>-.533E-5</MEAN_MOTION_DOT><MEAN_MOTION_DDOT>0</MEAN_MOTION_DDOT></tleParameters></data></segment></body></omm>
<omm id="CCSDS_OMM_VERS" version="2.0">
<header><CREATION_DATE/><ORIGINATOR/></header><body><segment><metadata><OBJECT_NAME>ONEWEB-0046</OBJECT_NAME><OBJECT_ID>2020-020Z</OBJECT_ID><CENTER_NAME>EARTH</CENTER_NAME><REF_FRAME>TEME</REF_FRAME><TIME_SYSTEM>UTC</TIME_SYSTEM><MEAN_ELEMENT_THEORY>SGP4</MEAN_ELEMENT_THEORY></metadata><data><meanElements><EPOCH>2025-09-23T20:51:44.197056</EPOCH><MEAN_MOTION>13.11414688</MEAN_MOTION><ECCENTRICITY>.00017799</ECCENTRICITY><INCLINATION>87.8790</INCLINATION><RA_OF_ASC_NODE>74.1071</RA_OF_ASC_NODE><ARG_OF_PERICENTER>83.3739</ARG_OF_PERICENTER><MEAN_ANOMALY>276.7592</MEAN_ANOMALY></meanElements><tleParameters><EPHEMERIS_TYPE>0</EPHEMERIS_TYPE><CLASSIFICATION_TYPE>U</CLASSIFICATION_TYPE><NORAD_CAT_ID>45447</NORAD_CAT_ID><ELEMENT_SET_NO>999</ELEMENT_SET_NO><REV_AT_EPOCH>26770</REV_AT_EPOCH><BSTAR>-.78170226E-3</BSTAR><MEAN_MOTION_DOT>-.264E-5</MEAN_MOTION_DOT><MEAN_MOTION_DDOT>0</MEAN_MOTION_DDOT></tleParameters></data></segment></body></omm>
<omm id="CCSDS_OMM_VERS" version="2.0">
<header><CREATION_DATE/><ORIGINATOR/></header><body><segment><metadata><OBJECT_NAME>ONEWEB-0063</OBJECT_NAME><OBJECT_ID>2020-020AA</OBJECT_ID><CENTER_NAME>EARTH</CENTER_NAME><REF_FRAME>TEME</REF_FRAME><TIME_SYSTEM>UTC</TIME_SYSTEM><MEAN_ELEMENT_THEORY>SGP4</MEAN_ELEMENT_THEORY></metadata><data><meanElements><EPOCH>2025-09-23T21:33:13.969440</EPOCH><MEAN_MOTION>13.11418489</MEAN_MOTION><ECCENTRICITY>.0001861</ECCENTRICITY><INCLINATION>87.8794</INCLINATION><RA_OF_ASC_NODE>74.0996</RA_OF_ASC_NODE><ARG_OF_PERICENTER>89.1291</ARG_OF_PERICENTER><MEAN_ANOMALY>271.0050</MEAN_ANOMALY></meanElements><tleParameters><EPHEMERIS_TYPE>0</EPHEMERIS_TYPE><CLASSIFICATION_TYPE>U</CLASSIFICATION_TYPE><NORAD_CAT_ID>45448</NORAD_CAT_ID><ELEMENT_SET_NO>999</ELEMENT_SET_NO><REV_AT_EPOCH>26779</REV_AT_EPOCH><BSTAR>-.56430189E-3</BSTAR><MEAN_MOTION_DOT>-.187E-5</MEAN_MOTION_DOT><MEAN_MOTION_DDOT>0</MEAN_MOTION_DDOT></tleParameters></data></segment></body></omm>
<omm id="CCSDS_OMM_VERS" version="2.0">
<header><CREATION_DATE/><ORIGINATOR/></header><body><segment><metadata><OBJECT_NAME>ONEWEB-0019</OBJECT_NAME><OBJECT_ID>2020-020AB</OBJECT_ID><CENTER_NAME>EARTH</CENTER_NAME><REF_FRAME>TEME</REF_FRAME><TIME_SYSTEM>UTC</TIME_SYSTEM><MEAN_ELEMENT_THEORY>SGP4</MEAN_ELEMENT_THEORY></metadata><data><meanElements><EPOCH>2025-09-23T20:55:24.217248</EPOCH><MEAN_MOTION>13.11415774</MEAN_MOTION><ECCENTRICITY>.00015626</ECCENTRICITY><INCLINATION>87.8786</INCLINATION><RA_OF_ASC_NODE>74.1205</RA_OF_ASC_NODE><ARG_OF_PERICENTER>92.4815</ARG_OF_PERICENTER><MEAN_ANOMALY>267.6492</MEAN_ANOMALY></meanElements><tleParameters><EPHEMERIS_TYPE>0</EPHEMERIS_TYPE><CLASSIFICATION_TYPE>U</CLASSIFICATION_TYPE><NORAD_CAT_ID>45449</NORAD_CAT_ID><ELEMENT_SET_NO>999</ELEMENT_SET_NO><REV_AT_EPOCH>26763</REV_AT_EPOCH><BSTAR>-.11465277E-2</BSTAR><MEAN_MOTION_DOT>-.394E-5</MEAN_MOTION_DOT><MEAN_MOTION_DDOT>0</MEAN_MOTION_DDOT></tleParameters></data></segment></body></omm>

</ndm>
